0 SYNCOM 2 (A 26)
1 00634U 63031A   13279.67689344 -.00000127  00000-0  00000+0 0  5508
2 00634 035.6417 004.4669 0009217 111.4312 220.8214 01.00296335183866
0 SYNCOM 2 (A 26)
1 00634U 63031A   13282.71292266 -.00000134  00000-0  00000+0 0  5519
2 00634 035.6429 004.4250 0009014 112.1438 236.3438 01.00296524183890
0 SYNCOM 2 (A 26)
1 00634U 63031A   13285.74451944 -.00000144  00000-0  00000+0 0  5527
2 00634 035.6442 004.3834 0008774 112.4205 250.7015 01.00296770183927
0 SYNCOM 2 (A 26)
1 00634U 63031A   13287.89010512 -.00000149  00000-0  00000+0 0  5533
2 00634 035.6450 004.3543 0008659 112.1739 305.6685 01.00296888183949
0 SYNCOM 2 (A 26)
1 00634U 63031A   13289.94389053 -.00000151  00000-0  00000+0 0  5544
2 00634 035.6458 004.3266 0008496 111.7880 327.6298 01.00296897183966
0 SYNCOM 2 (A 26)
1 00634U 63031A   13293.66198602 -.00000147  00000-0  00000+0 0  5552
2 00634 035.6471 004.2764 0008428 110.7183 231.2253 01.00296651184008
